{"type": "FeatureCollection", "features": [ {"type": "Feature", "properties": {"norad_id": 66375, "name": "STARLINK-35826", "group": "last-30-days", "lat": 34.90522565629152, "lon": 107.6113790839835, "alt_km": 340.8885751394864, "timestamp": "2025-12-03T19:33:05.755143+00:00", "meta": {"OBJECT_NAME": "STARLINK-35826", "OBJECT_ID": "2025-254AD", "EPOCH": "2025-12-03T09:50:34.323936", "MEAN_MOTION": 15.74286775, "ECCENTRICITY": 0.0001356, "INCLINATION": 53.1566, "RA_OF_ASC_NODE": 321.1665, "ARG_OF_PERICENTER": 94.4248, "MEAN_ANOMALY": 265.6926, "EPHEMERIS_TYPE": 0, "CLASSIFICATION_TYPE": "U", "NORAD_CAT_ID": 66375, "ELEMENT_SET_NO": 999, "REV_AT_EPOCH": 421, "BSTAR": 0.0018858, "MEAN_MOTION_DOT": 0.00286357, "MEAN_MOTION_DDOT": 0}, "tle": {"line1": "1 66375U 25254AD  25337.41011949  .00286357  00000+0  18858-2 0  9996", "line2": "2 66375  53.1566 321.1665 0001356  94.4248 265.6926 15.74286775  4210"}}, "geometry": {"type": "Point", "coordinates": [107.6113790839835, 34.90522565629152]}}, {"type": "Feature", "properties": {"norad_id": 66376, "name": "SHIYAN-32 01", "group": "last-30-days", "lat": 10.438823902910189, "lon": -131.5148694941814, "alt_km": 429.6018960631027, "timestamp": "2025-12-03T19:33:05.755155+00:00", "meta": {"OBJECT_NAME": "SHIYAN-32 01", "OBJECT_ID": "2025-255A", "EPOCH": "2025-12-03T11:43:08.198976", "MEAN_MOTION": 15.42285116, "ECCENTRICITY": 0.0013415, "INCLINATION": 52.9966, "RA_OF_ASC_NODE": 222.0486, "ARG_OF_PERICENTER": 13.5056, "MEAN_ANOMALY": 346.6304, "EPHEMERIS_TYPE": 0, "CLASSIFICATION_TYPE": "U", "NORAD_CAT_ID": 66376, "ELEMENT_SET_NO": 999, "REV_AT_EPOCH": 392, "BSTAR": 0.0006042, "MEAN_MOTION_DOT": 0.00026158, "MEAN_MOTION_DDOT": 0}, "tle": {"line1": "1 66376U 25255A   25337.48828934  .00026158  00000+0  60420-3 0  9999", "line2": "2 66376  52.9966 222.0486 0013415  13.5056 346.6304 15.42285116  3920"}}, "geometry": {"type": "Point", "coordinates": [-131.5148694941814, 10.438823902910189]}}, {"type": "Feature", "properties": {"norad_id": 66377, "name": "CZ-11 DEB", "group": "last-30-days", "lat": 52.09600882496711, "lon": -64.02080130623024, "alt_km": 425.14896377424157, "timestamp": "2025-12-03T19:33:05.755165+00:00", "meta": {"OBJECT_NAME": "CZ-11 DEB", "OBJECT_ID": "2025-255B", "EPOCH": "2025-12-03T11:25:56.511264", "MEAN_MOTION": 15.43539883, "ECCENTRICITY": 0.0013947, "INCLINATION": 52.9966, "RA_OF_ASC_NODE": 221.9735, "ARG_OF_PERICENTER": 11.151, "MEAN_ANOMALY": 348.9801, "EPHEMERIS_TYPE": 0, "CLASSIFICATION_TYPE": "U", "NORAD_CAT_ID": 66377, "ELEMENT_SET_NO": 999, "REV_AT_EPOCH": 378, "BSTAR": 0.00098972, "MEAN_MOTION_DOT": 0.00045113, "MEAN_MOTION_DDOT": 0}, "tle": {"line1": "1 66377U 25255B   25337.47634851  .00045113  00000+0  98972-3 0  9997", "line2": "2 66377  52.9966 221.9735 0013947  11.1510 348.9801 15.43539883  3780"}}, "geometry": {"type": "Point", "coordinates": [-64.02080130623024, 52.09600882496711]}}, {"type": "Feature", "properties": {"norad_id": 66378, "name": "SHIYAN-32 02", "group": "last-30-days", "lat": 48.39904163629227, "lon": -17.84179605398013, "alt_km": 428.5862230012035, "timestamp": "2025-12-03T19:33:05.755176+00:00", "meta": {"OBJECT_NAME": "SHIYAN-32 02", "OBJECT_ID": "2025-255C", "EPOCH": "2025-12-03T09:45:21.079872", "MEAN_MOTION": 15.44112563, "ECCENTRICITY": 0.0012466, "INCLINATION": 52.9968, "RA_OF_ASC_NODE": 222.2515, "ARG_OF_PERICENTER": 10.4453, "MEAN_ANOMALY": 349.6808, "EPHEMERIS_TYPE": 0, "CLASSIFICATION_TYPE": "U", "NORAD_CAT_ID": 66378, "ELEMENT_SET_NO": 999, "REV_AT_EPOCH": 377, "BSTAR": 0.0015735, "MEAN_MOTION_DOT": 0.00073609, "MEAN_MOTION_DDOT": 0}, "tle": {"line1": "1 66378U 25255C   25337.40649398  .00073609  00000+0  15735-2 0  9999", "line2": "2 66378  52.9968 222.2515 0012466  10.4453 349.6808 15.44112563  3773"}}, "geometry": {"type": "Point", "coordinates": [-17.84179605398013, 48.39904163629227]}}, {"type": "Feature", "properties": {"norad_id": 66379, "name": "SHIYAN-32 03", "group": "last-30-days", "lat": 34.60452942512778, "lon": -108.20847039888984, "alt_km": 424.75042469953223, "timestamp": "2025-12-03T19:33:05.755186+00:00", "meta": {"OBJECT_NAME": "SHIYAN-32 03", "OBJECT_ID": "2025-255D", "EPOCH": "2025-12-03T11:34:55.585920", "MEAN_MOTION": 15.42636959, "ECCENTRICITY": 0.0015454, "INCLINATION": 52.9972, "RA_OF_ASC_NODE": 222.0139, "ARG_OF_PERICENTER": 14.4547, "MEAN_ANOMALY": 345.6896, "EPHEMERIS_TYPE": 0, "CLASSIFICATION_TYPE": "U", "NORAD_CAT_ID": 66379, "ELEMENT_SET_NO": 999, "REV_AT_EPOCH": 380, "BSTAR": 0.000543, "MEAN_MOTION_DOT": 0.00023765, "MEAN_MOTION_DDOT": 0}, "tle": {"line1": "1 66379U 25255D   25337.48258780  .00023765  00000+0  54300-3 0  9999", "line2": "2 66379  52.9972 222.0139 0015454  14.4547 345.6896 15.42636959  3802"}}, "geometry": {"type": "Point", "coordinates": [-108.20847039888984, 34.60452942512778]}}, {"type": "Feature", "properties": {"norad_id": 66380, "name": "STARLINK-35139", "group": "last-30-days", "lat": -11.694715609372887, "lon": -62.2189533200269, "alt_km": 449.6632212961931, "timestamp": "2025-12-03T19:33:05.755197+00:00", "meta": {"OBJECT_NAME": "STARLINK-35139", "OBJECT_ID": "2025-257A", "EPOCH": "2025-12-03T12:00:02.998944", "MEAN_MOTION": 15.39583253, "ECCENTRICITY": 0.0001076, "INCLINATION": 53.1583, "RA_OF_ASC_NODE": 308.1921, "ARG_OF_PERICENTER": 82.1944, "MEAN_ANOMALY": 318.4914, "EPHEMERIS_TYPE": 0, "CLASSIFICATION_TYPE": "U", "NORAD_CAT_ID": 66380, "ELEMENT_SET_NO": 999, "REV_AT_EPOCH": 495, "BSTAR": 0.0008269, "MEAN_MOTION_DOT": 0.00032778, "MEAN_MOTION_DDOT": 0}, "tle": {"line1": "1 66380U 25257A   25337.50003471  .00032778  00000+0  82690-3 0  9998", "line2": "2 66380  53.1583 308.1921 0001076  82.1944 318.4914 15.39583253  4958"}}, "geometry": {"type": "Point", "coordinates": [-62.2189533200269, -11.694715609372887]}}, {"type": "Feature", "properties": {"norad_id": 66381, "name": "STARLINK-35158", "group": "last-30-days", "lat": -10.256556473618401, "lon": -61.09214354354568, "alt_km": 449.54891242766007, "timestamp": "2025-12-03T19:33:05.755207+00:00", "meta": {"OBJECT_NAME": "STARLINK-35158", "OBJECT_ID": "2025-257B", "EPOCH": "2025-12-03T12:00:02.998944", "MEAN_MOTION": 15.39583402, "ECCENTRICITY": 0.0001337, "INCLINATION": 53.1582, "RA_OF_ASC_NODE": 308.188, "ARG_OF_PERICENTER": 85.231, "MEAN_ANOMALY": 317.2743, "EPHEMERIS_TYPE": 0, "CLASSIFICATION_TYPE": "U", "NORAD_CAT_ID": 66381, "ELEMENT_SET_NO": 999, "REV_AT_EPOCH": 501, "BSTAR": 0.00086664, "MEAN_MOTION_DOT": 0.0003438, "MEAN_MOTION_DDOT": 0}, "tle": {"line1": "1 66381U 25257B   25337.50003471  .00034380  00000+0  86664-3 0  9995", "line2": "2 66381  53.1582 308.1880 0001337  85.2310 317.2743 15.39583402  5014"}}, "geometry": {"type": "Point", "coordinates": [-61.09214354354568, -10.256556473618401]}}, {"type": "Feature", "properties": {"norad_id": 66382, "name": "STARLINK-35639", "group": "last-30-days", "lat": 8.8215384606579, "lon": -46.66221484915938, "alt_km": 446.85725273008757, "timestamp": "2025-12-03T19:33:05.755218+00:00", "meta": {"OBJECT_NAME": "STARLINK-35639", "OBJECT_ID": "2025-257C", "EPOCH": "2025-12-03T12:00:02.998944", "MEAN_MOTION": 15.39579351, "ECCENTRICITY": 0.000128, "INCLINATION": 53.1588, "RA_OF_ASC_NODE": 308.1388, "ARG_OF_PERICENTER": 93.7574, "MEAN_ANOMALY": 332.6559, "EPHEMERIS_TYPE": 0, "CLASSIFICATION_TYPE": "U", "NORAD_CAT_ID": 66382, "ELEMENT_SET_NO": 999, "REV_AT_EPOCH": 501, "BSTAR": 0.0010246, "MEAN_MOTION_DOT": 0.00040748, "MEAN_MOTION_DDOT": 0}, "tle": {"line1": "1 66382U 25257C   25337.50003471  .00040748  00000+0  10246-2 0  9993", "line2": "2 66382  53.1588 308.1388 0001280  93.7574 332.6559 15.39579351  5011"}}, "geometry": {"type": "Point", "coordinates": [-46.66221484915938, 8.8215384606579]}}, {"type": "Feature", "properties": {"norad_id": 66383, "name": "STARLINK-35690", "group": "last-30-days", "lat": 28.662631731696706, "lon": -29.20060202760457, "alt_km": 443.4655740336357, "timestamp": "2025-12-03T19:33:05.755230+00:00", "meta": {"OBJECT_NAME": "STARLINK-35690", "OBJECT_ID": "2025-257D", "EPOCH": "2025-12-03T12:00:02.998944", "MEAN_MOTION": 15.39564441, "ECCENTRICITY": 0.000146, "INCLINATION": 53.159, "RA_OF_ASC_NODE": 308.0876, "ARG_OF_PERICENTER": 101.0226, "MEAN_ANOMALY": 351.1688, "EPHEMERIS_TYPE": 0, "CLASSIFICATION_TYPE": "U", "NORAD_CAT_ID": 66383, "ELEMENT_SET_NO": 999, "REV_AT_EPOCH": 501, "BSTAR": 0.0011394, "MEAN_MOTION_DOT": 0.00045365, "MEAN_MOTION_DDOT": 0}, "tle": {"line1": "1 66383U 25257D   25337.50003471  .00045365  00000+0  11394-2 0  9999", "line2": "2 66383  53.1590 308.0876 0001460 101.0226 351.1688 15.39564441  5016"}}, "geometry": {"type": "Point", "coordinates": [-29.20060202760457, 28.662631731696706]}}, {"type": "Feature", "properties": {"norad_id": 66384, "name": "STARLINK-35662", "group": "last-30-days", "lat": 29.994917488261155, "lon": -27.754253976112867, "alt_km": 443.1501349223954, "timestamp": "2025-12-03T19:33:05.755243+00:00", "meta": {"OBJECT_NAME": "STARLINK-35662", "OBJECT_ID": "2025-257E", "EPOCH": "2025-12-03T12:00:02.998944", "MEAN_MOTION": 15.39561211, "ECCENTRICITY": 0.0001452, "INCLINATION": 53.1589, "RA_OF_ASC_NODE": 308.0846, "ARG_OF_PERICENTER": 95.7977, "MEAN_ANOMALY": 358.2296, "EPHEMERIS_TYPE": 0, "CLASSIFICATION_TYPE": "U", "NORAD_CAT_ID": 66384, "ELEMENT_SET_NO": 999, "REV_AT_EPOCH": 501, "BSTAR": 0.0011957, "MEAN_MOTION_DOT": 0.00047633, "MEAN_MOTION_DDOT": 0}, "tle": {"line1": "1 66384U 25257E   25337.50003471  .00047633  00000+0  11957-2 0  9995", "line2": "2 66384  53.1589 308.0846 0001452  95.7977 358.2296 15.39561211  5010"}}, "geometry": {"type": "Point", "coordinates": [-27.754253976112867, 29.994917488261155]}}]}